[{"OBJECT_NAME":"CAS-2T & KS-1Q","OBJECT_ID":"2016-066G","EPOCH":"2026-03-09T16:58:07.740192","MEAN_MOTION":14.44469485,"ECCENTRICITY":0.03436678,"INCLINATION":98.388,"RA_OF_ASC_NODE":145.5568,"ARG_OF_PERICENTER":71.4405,"MEAN_ANOMALY":292.3791,"EPHEMERIS_TYPE":0,"CLASSIFICATION_TYPE":"U","NORAD_CAT_ID":41847,"ELEMENT_SET_NO":999,"REV_AT_EPOCH":49043,"BSTAR":0.00023398968,"MEAN_MOTION_DOT":1.617e-5,"MEAN_MOTION_DDOT":0},{"OBJECT_NAME":"FENGYUN 1C DEB","OBJECT_ID":"1999-025ATW","EPOCH":"2026-03-09T22:59:09.563712","MEAN_MOTION":14.05257088,"ECCENTRICITY":0.00541274,"INCLINATION":98.8286,"RA_OF_ASC_NODE":68.2928,"ARG_OF_PERICENTER":97.8774,"MEAN_ANOMALY":262.8543,"EPHEMERIS_TYPE":0,"CLASSIFICATION_TYPE":"U","NORAD_CAT_ID":30760,"ELEMENT_SET_NO":999,"REV_AT_EPOCH":97447,"BSTAR":0.00011775322,"MEAN_MOTION_DOT":1.5e-6,"MEAN_MOTION_DDOT":0}]
